[Satellite]
VERSION=1.1
NAME=GPS BIIF-1  (PRN 25)
NICKNAME=GPS BIIF-1  (PRN 25)
TLE1=1 36585U 10022A   17186.09978332 -.00000089  00000-0  00000-0 0  9994
TLE2=2 36585  55.9765 339.9154 0063455  45.9526 191.5941  2.00576316 52023
